IRIDIUM 57              
1 25273U 98019B   24134.21688269  .00001285  00000+0  44308-3 0  9999
2 25273  86.3926 312.7796 0002147  88.9798 271.1644 14.35196545367614
IRIDIUM 63              
1 25286U 98021B   24134.04488963  .00001579  00000+0  54008-3 0  9990
2 25286  86.3990 249.7269 0002305  97.1596 262.9863 14.35744452366680
IRIDIUM 69              
1 25319U 98026A   24133.86914115  .00002511  00000+0  79216-3 0  9999
2 25319  86.3965 264.2998 0000475 196.8937 163.2246 14.39966640365431
IRIDIUM 71              
1 25320U 98026B   24133.87686970  .00002390  00000+0  74877-3 0  9990
2 25320  86.3969 259.0622 0001917  31.8996 328.2319 14.40284267366208
IRIDIUM 73              
1 25344U 98032C   24133.77464548  .00002695  00000+0  68393-3 0  9991
2 25344  86.4467 216.5971 0001719  98.9078 261.2322 14.50505967372490
IRIDIUM 82              
1 25467U 98051A   24133.94694991  .00015672  00000+0  80872-3 0  9999
2 25467  86.3723 302.4847 0128308 351.2225   8.6766 15.09229045363175
IRIDIUM 2               
1 25527U 98066A   24133.95916291  .00201035  00000+0  13086-2 0  9995
2 25527  85.5018 326.1856 0002795 116.9769 243.1789 15.75352908402356
